start=new Date('2022-03-17T00:00:00.000Z').valueOf();
sats=[{"PERIOD":"95.595","LAUNCH_DATE":"2020-08-18","MEAN_ANOMALY":"292.7561","DECAY_DATE":null,"RA_OF_ASC_NODE":"344.8047","SITE":"AFETR","INCLINATION":"53.0554","NORAD_CAT_ID":"46144","RCS_SIZE":"LARGE","REV_AT_EPOCH":"8783","CENTER_NAME":"EARTH","APOAPSIS":"548.436","BSTAR":"-0.00026119000000","FILE":"3361779","GP_ID":"198893005","EPHEMERIS_TYPE":"0","ELEMENT_SET_NO":"999","OBJECT_ID":"2020-057AD","SEMIMAJOR_AXIS":"6925.478","MEAN_MOTION_DOT":"-0.00004165","ARG_OF_PERICENTER":"67.3595","ECCENTRICITY":"0.00015790","TIME_SYSTEM":"UTC","MEAN_ELEMENT_THEORY":"SGP4","MEAN_MOTION_DDOT":"0.0000000000000","EPOCH":"2022-03-16T11:38:13.398720","PERIAPSIS":"546.249","MEAN_MOTION":"15.06357846","REF_FRAME":"TEME","CLASSIFICATION_TYPE":"U","TLE_LINE1":"1 46144U 20057AD  22075.48487730 -.00004165  00000-0 -26119-3 0  9990","OBJECT_TYPE":"PAYLOAD","OBJECT_NAME":"STARLINK-1606","TLE_LINE2":"2 46144  53.0554 344.8047 0001579  67.3595 292.7561 15.06357846 87833","COUNTRY_CODE":"US"},{"OBJECT_TYPE":"PAYLOAD","OBJECT_NAME":"STARLINK-1608","TLE_LINE2":"2 46146  53.0543   4.5813 0001844  54.1259 305.9901 15.06372573 87558","COUNTRY_CODE":"US","MEAN_MOTION_DDOT":"0.0000000000000","MEAN_ELEMENT_THEORY":"SGP4","EPOCH":"2022-03-16T12:44:33.683424","PERIAPSIS":"546.021","MEAN_MOTION":"15.06372573","REF_FRAME":"TEME","TLE_LINE1":"1 46146U 20057AF  22075.53094541 -.00005056  00000-0 -32102-3 0  9991","CLASSIFICATION_TYPE":"U","SEMIMAJOR_AXIS":"6925.433","MEAN_MOTION_DOT":"-0.00005056","TIME_SYSTEM":"UTC","ARG_OF_PERICENTER":"54.1259","ECCENTRICITY":"0.00018440","OBJECT_ID":"2020-057AF","APOAPSIS":"548.575","FILE":"3361787","BSTAR":"-0.00032102000000","GP_ID":"198892818","ELEMENT_SET_NO":"999","EPHEMERIS_TYPE":"0","CENTER_NAME":"EARTH","RCS_SIZE":"LARGE","REV_AT_EPOCH":"8755","LAUNCH_DATE":"2020-08-18","PERIOD":"95.594","MEAN_ANOMALY":"305.9901","DECAY_DATE":null,"RA_OF_ASC_NODE":"4.5813","SITE":"AFETR","INCLINATION":"53.0543","NORAD_CAT_ID":"46146"},{"ELEMENT_SET_NO":"999","EPHEMERIS_TYPE":"0","APOAPSIS":"548.542","FILE":"3362094","BSTAR":"-0.00021936000000","GP_ID":"198919404","CENTER_NAME":"EARTH","REV_AT_EPOCH":"8818","RCS_SIZE":"LARGE","RA_OF_ASC_NODE":"3.4733","SITE":"AFETR","INCLINATION":"53.0571","NORAD_CAT_ID":"46147","LAUNCH_DATE":"2020-08-18","PERIOD":"95.594","MEAN_ANOMALY":"311.4525","DECAY_DATE":null,"OBJECT_TYPE":"PAYLOAD","OBJECT_NAME":"STARLINK-1611","TLE_LINE2":"2 46147  53.0571   3.4733 0001818  48.6620 311.4525 15.06377327 88186","COUNTRY_CODE":"US","MEAN_MOTION":"15.06377327","REF_FRAME":"TEME","TLE_LINE1":"1 46147U 20057AG  22075.77790095 -.00003545  00000-0 -21936-3 0  9999","CLASSIFICATION_TYPE":"U","MEAN_MOTION_DDOT":"0.0000000000000","MEAN_ELEMENT_THEORY":"SGP4","EPOCH":"2022-03-16T18:40:10.642080","PERIAPSIS":"546.024","MEAN_MOTION_DOT":"-0.00003545","ARG_OF_PERICENTER":"48.6620","ECCENTRICITY":"0.00018180","TIME_SYSTEM":"UTC","SEMIMAJOR_AXIS":"6925.418","OBJECT_ID":"2020-057AG"},{"OBJECT_TYPE":"PAYLOAD","OBJECT_NAME":"STARLINK-1616","TLE_LINE2":"2 46148  53.0569 346.1328 0001653  64.1908 295.9252 15.06331106 87110","COUNTRY_CODE":"US","MEAN_MOTION":"15.06331106","REF_FRAME":"TEME","CLASSIFICATION_TYPE":"U","TLE_LINE1":"1 46148U 20057AH  22075.18629677 -.00026644  00000-0 -17798-2 0  9997","MEAN_MOTION_DDOT":"0.0000000000000","MEAN_ELEMENT_THEORY":"SGP4","EPOCH":"2022-03-16T04:28:16.040928","PERIAPSIS":"546.280","MEAN_MOTION_DOT":"-0.00026644","ARG_OF_PERICENTER":"64.1908","ECCENTRICITY":"0.00016530","TIME_SYSTEM":"UTC","SEMIMAJOR_AXIS":"6925.560","OBJECT_ID":"2020-057AH","EPHEMERIS_TYPE":"0","ELEMENT_SET_NO":"999","APOAPSIS":"548.570","BSTAR":"-0.00177980000000","FILE":"3361689","GP_ID":"198887749","CENTER_NAME":"EARTH","REV_AT_EPOCH":"8711","RCS_SIZE":"LARGE","RA_OF_ASC_NODE":"346.1328","SITE":"AFETR","NORAD_CAT_ID":"46148","INCLINATION":"53.0569","LAUNCH_DATE":"2020-08-18","PERIOD":"95.597","MEAN_ANOMALY":"295.9252","DECAY_DATE":null},{"MEAN_MOTION_DOT":"0.00002460","ARG_OF_PERICENTER":"68.3872","ECCENTRICITY":"0.00017660","TIME_SYSTEM":"UTC","SEMIMAJOR_AXIS":"6925.358","OBJECT_ID":"2020-057AJ","TLE_LINE2":"2 46149  53.0557 346.3772 0001766  68.3872 291.7305 15.06396765 87771","COUNTRY_CODE":"US","OBJECT_NAME":"STARLINK-1620","OBJECT_TYPE":"PAYLOAD","REF_FRAME":"TEME","CLASSIFICATION_TYPE":"U","TLE_LINE1":"1 46149U 20057AJ  22075.13469774  .00002460  00000-0  18403-3 0  9996","MEAN_MOTION":"15.06396765","EPOCH":"2022-03-16T03:13:57.884736","PERIAPSIS":"546.000","MEAN_ELEMENT_THEORY":"SGP4","MEAN_MOTION_DDOT":"0.0000000000000","REV_AT_EPOCH":"8777","RCS_SIZE":"LARGE","NORAD_CAT_ID":"46149","INCLINATION":"53.0557","RA_OF_ASC_NODE":"346.3772","SITE":"AFETR","DECAY_DATE":null,"LAUNCH_DATE":"2020-08-18","PERIOD":"95.592","MEAN_ANOMALY":"291.7305","EPHEMERIS_TYPE":"0","ELEMENT_SET_NO":"999","FILE":"3360961","BSTAR":"0.00018403000000","GP_ID":"198851259","APOAPSIS":"548.446","CENTER_NAME":"EARTH"},{"REV_AT_EPOCH":"8691","RCS_SIZE":"LARGE","RA_OF_ASC_NODE":"4.0043","SITE":"AFETR","NORAD_CAT_ID":"46150","INCLINATION":"53.0557","PERIOD":"95.594","LAUNCH_DATE":"2020-08-18","MEAN_ANOMALY":"303.0416","DECAY_DATE":null,"ELEMENT_SET_NO":"999","EPHEMERIS_TYPE":"0","APOAPSIS":"548.340","FILE":"3362094","BSTAR":"-0.00024860000000","GP_ID":"198920555","CENTER_NAME":"EARTH","MEAN_MOTION_DOT":"-0.00003980","TIME_SYSTEM":"UTC","ARG_OF_PERICENTER":"57.0717","ECCENTRICITY":"0.00015040","SEMIMAJOR_AXIS":"6925.433","OBJECT_ID":"2020-057AK","OBJECT_NAME":"STARLINK-1629","OBJECT_TYPE":"PAYLOAD","TLE_LINE2":"2 46150  53.0557   4.0043 0001504  57.0717 303.0416 15.06372340 86913","COUNTRY_CODE":"US","MEAN_MOTION":"15.06372340","REF_FRAME":"TEME","CLASSIFICATION_TYPE":"U","TLE_LINE1":"1 46150U 20057AK  22075.65995723 -.00003980  00000-0 -24860-3 0  9997","MEAN_MOTION_DDOT":"0.0000000000000","MEAN_ELEMENT_THEORY":"SGP4","EPOCH":"2022-03-16T15:50:20.304672","PERIAPSIS":"546.257"},{"APOAPSIS":"548.333","GP_ID":"198860254","BSTAR":"-0.00020990000000","FILE":"3361370","EPHEMERIS_TYPE":"0","ELEMENT_SET_NO":"999","CENTER_NAME":"EARTH","RCS_SIZE":"LARGE","REV_AT_EPOCH":"8781","MEAN_ANOMALY":"298.2560","LAUNCH_DATE":"2020-08-18","PERIOD":"95.593","DECAY_DATE":null,"SITE":"AFETR","RA_OF_ASC_NODE":"345.0105","INCLINATION":"53.0550","NORAD_CAT_ID":"46151","OBJECT_NAME":"STARLINK-1631","OBJECT_TYPE":"PAYLOAD","COUNTRY_CODE":"US","TLE_LINE2":"2 46151  53.0550 345.0105 0001526  61.8583 298.2560 15.06379699 87811","MEAN_ELEMENT_THEORY":"SGP4","MEAN_MOTION_DDOT":"0.0000000000000","PERIAPSIS":"546.219","EPOCH":"2022-03-16T10:29:12.558624","MEAN_MOTION":"15.06379699","TLE_LINE1":"1 46151U 20057AL  22075.43695091 -.00003405  00000-0 -20990-3 0  9991","CLASSIFICATION_TYPE":"U","REF_FRAME":"TEME","SEMIMAJOR_AXIS":"6925.411","ARG_OF_PERICENTER":"61.8583","ECCENTRICITY":"0.00015260","TIME_SYSTEM":"UTC","MEAN_MOTION_DOT":"-0.00003405","OBJECT_ID":"2020-057AL"},{"CENTER_NAME":"EARTH","APOAPSIS":"548.412","BSTAR":"-0.00053587000000","FILE":"3361689","GP_ID":"198887250","ELEMENT_SET_NO":"999","EPHEMERIS_TYPE":"0","PERIOD":"95.595","LAUNCH_DATE":"2020-08-18","MEAN_ANOMALY":"299.1184","DECAY_DATE":null,"RA_OF_ASC_NODE":"6.2821","SITE":"AFETR","NORAD_CAT_ID":"46152","INCLINATION":"53.0558","RCS_SIZE":"LARGE","REV_AT_EPOCH":"8683","MEAN_ELEMENT_THEORY":"SGP4","MEAN_MOTION_DDOT":"0.0000000000000","EPOCH":"2022-03-16T03:43:10.013664","PERIAPSIS":"546.256","MEAN_MOTION":"15.06360744","REF_FRAME":"TEME","CLASSIFICATION_TYPE":"U","TLE_LINE1":"1 46152U 20057AM  22075.15497701 -.00008246  00000-0 -53587-3 0  9995","OBJECT_TYPE":"PAYLOAD","OBJECT_NAME":"STARLINK-1634","TLE_LINE2":"2 46152  53.0558   6.2821 0001557  60.9961 299.1184 15.06360744 86839","COUNTRY_CODE":"US","OBJECT_ID":"2020-057AM","SEMIMAJOR_AXIS":"6925.469","MEAN_MOTION_DOT":"-0.00008246","ARG_OF_PERICENTER":"60.9961","TIME_SYSTEM":"UTC","ECCENTRICITY":"0.00015570"},{"RCS_SIZE":"LARGE","REV_AT_EPOCH":"8715","MEAN_ANOMALY":"297.9378","LAUNCH_DATE":"2020-08-18","PERIOD":"95.595","DECAY_DATE":null,"SITE":"AFETR","RA_OF_ASC_NODE":"344.9405","NORAD_CAT_ID":"46153","INCLINATION":"53.0559","APOAPSIS":"548.431","GP_ID":"198886499","FILE":"3361689","BSTAR":"-0.00036662000000","ELEMENT_SET_NO":"999","EPHEMERIS_TYPE":"0","CENTER_NAME":"EARTH","SEMIMAJOR_AXIS":"6925.495","ARG_OF_PERICENTER":"62.1767","TIME_SYSTEM":"UTC","ECCENTRICITY":"0.00015460","MEAN_MOTION_DOT":"-0.00005731","OBJECT_ID":"2020-057AN","OBJECT_TYPE":"PAYLOAD","OBJECT_NAME":"STARLINK-1636","COUNTRY_CODE":"US","TLE_LINE2":"2 46153  53.0559 344.9405 0001546  62.1767 297.9378 15.06352214 87157","MEAN_ELEMENT_THEORY":"SGP4","MEAN_MOTION_DDOT":"0.0000000000000","PERIAPSIS":"546.289","EPOCH":"2022-03-16T10:55:45.527520","MEAN_MOTION":"15.06352214","TLE_LINE1":"1 46153U 20057AN  22075.45538805 -.00005731  00000-0 -36662-3 0  9991","CLASSIFICATION_TYPE":"U","REF_FRAME":"TEME"},{"REV_AT_EPOCH":"8702","RCS_SIZE":"LARGE","SITE":"AFETR","RA_OF_ASC_NODE":"354.8937","INCLINATION":"53.0563","NORAD_CAT_ID":"46154","MEAN_ANOMALY":"294.8545","PERIOD":"95.593","LAUNCH_DATE":"2020-08-18","DECAY_DATE":null,"EPHEMERIS_TYPE":"0","ELEMENT_SET_NO":"999","APOAPSIS":"548.500","GP_ID":"198886749","FILE":"3361689","BSTAR":"-0.00026180000000","CENTER_NAME":"EARTH","ARG_OF_PERICENTER":"65.2628","ECCENTRICITY":"0.00017750","TIME_SYSTEM":"UTC","MEAN_MOTION_DOT":"-0.00004177","SEMIMAJOR_AXIS":"6925.406","OBJECT_ID":"2020-057AP","OBJECT_NAME":"STARLINK-1642","OBJECT_TYPE":"PAYLOAD","COUNTRY_CODE":"US","TLE_LINE2":"2 46154  53.0563 354.8937 0001775  65.2628 294.8545 15.06381365 87024","MEAN_MOTION":"15.06381365","CLASSIFICATION_TYPE":"U","TLE_LINE1":"1 46154U 20057AP  22075.46551323 -.00004177  00000-0 -26180-3 0  9990","REF_FRAME":"TEME","MEAN_ELEMENT_THEORY":"SGP4","MEAN_MOTION_DDOT":"0.0000000000000","PERIAPSIS":"546.041","EPOCH":"2022-03-16T11:10:20.343072"}];
